[{"OBJECT_NAME":"ONEWEB-0446","OBJECT_ID":"2022-012U","EPOCH":"2025-12-04T16:30:55.410048","MEAN_MOTION":13.10375429,"ECCENTRICITY":0.00014,"INCLINATION":87.8809,"RA_OF_ASC_NODE":75.0633,"ARG_OF_PERICENTER":101.1076,"MEAN_ANOMALY":259.0209,"EPHEMERIS_TYPE":0,"CLASSIFICATION_TYPE":"U","NORAD_CAT_ID":51640,"ELEMENT_SET_NO":999,"REV_AT_EPOCH":18385,"BSTAR":-0.0019167,"MEAN_MOTION_DOT":-6.56e-6,"MEAN_MOTION_DDOT":0},{"OBJECT_NAME":"ONEWEB-0448","OBJECT_ID":"2022-012V","EPOCH":"2025-12-04T16:38:05.675136","MEAN_MOTION":13.10377396,"ECCENTRICITY":0.0001652,"INCLINATION":87.8808,"RA_OF_ASC_NODE":75.0617,"ARG_OF_PERICENTER":105.3836,"MEAN_ANOMALY":254.7474,"EPHEMERIS_TYPE":0,"CLASSIFICATION_TYPE":"U","NORAD_CAT_ID":51641,"ELEMENT_SET_NO":999,"REV_AT_EPOCH":18382,"BSTAR":-0.0016191,"MEAN_MOTION_DOT":-5.53e-6,"MEAN_MOTION_DDOT":0},{"OBJECT_NAME":"ONEWEB-0449","OBJECT_ID":"2022-012W","EPOCH":"2025-12-04T13:05:21.054048","MEAN_MOTION":13.10375936,"ECCENTRICITY":0.0001633,"INCLINATION":87.8818,"RA_OF_ASC_NODE":75.0626,"ARG_OF_PERICENTER":121.1329,"MEAN_ANOMALY":238.9959,"EPHEMERIS_TYPE":0,"CLASSIFICATION_TYPE":"U","NORAD_CAT_ID":51642,"ELEMENT_SET_NO":999,"REV_AT_EPOCH":18381,"BSTAR":-0.00088673,"MEAN_MOTION_DOT":-2.97e-6,"MEAN_MOTION_DDOT":0},{"OBJECT_NAME":"ONEWEB-0451","OBJECT_ID":"2022-012X","EPOCH":"2025-12-04T15:50:55.783104","MEAN_MOTION":13.17649876,"ECCENTRICITY":0.0001741,"INCLINATION":87.9126,"RA_OF_ASC_NODE":44.5114,"ARG_OF_PERICENTER":104.9055,"MEAN_ANOMALY":255.2269,"EPHEMERIS_TYPE":0,"CLASSIFICATION_TYPE":"U","NORAD_CAT_ID":51643,"ELEMENT_SET_NO":999,"REV_AT_EPOCH":18804,"BSTAR":0.00026342,"MEAN_MOTION_DOT":1.15e-6,"MEAN_MOTION_DDOT":0},{"OBJECT_NAME":"ONEWEB-0452","OBJECT_ID":"2022-012Y","EPOCH":"2025-12-04T15:48:30.472128","MEAN_MOTION":13.17648653,"ECCENTRICITY":0.000192,"INCLINATION":87.9117,"RA_OF_ASC_NODE":44.5672,"ARG_OF_PERICENTER":109.1674,"MEAN_ANOMALY":250.9665,"EPHEMERIS_TYPE":0,"CLASSIFICATION_TYPE":"U","NORAD_CAT_ID":51644,"ELEMENT_SET_NO":999,"REV_AT_EPOCH":18805,"BSTAR":8.6218e-5,"MEAN_MOTION_DOT":4.6e-7,"MEAN_MOTION_DDOT":0},{"OBJECT_NAME":"ONEWEB-0456","OBJECT_ID":"2022-012AA","EPOCH":"2025-12-04T05:59:53.392128","MEAN_MOTION":13.10376286,"ECCENTRICITY":0.0001754,"INCLINATION":87.8826,"RA_OF_ASC_NODE":75.0903,"ARG_OF_PERICENTER":99.4862,"MEAN_ANOMALY":260.6464,"EPHEMERIS_TYPE":0,"CLASSIFICATION_TYPE":"U","NORAD_CAT_ID":51646,"ELEMENT_SET_NO":999,"REV_AT_EPOCH":18381,"BSTAR":0.00085805,"MEAN_MOTION_DOT":3.12e-6,"MEAN_MOTION_DDOT":0},{"OBJECT_NAME":"ONEWEB-0457","OBJECT_ID":"2022-012AB","EPOCH":"2025-12-04T16:26:09.420000","MEAN_MOTION":13.10360689,"ECCENTRICITY":0.0001523,"INCLINATION":87.8797,"RA_OF_ASC_NODE":75.0511,"ARG_OF_PERICENTER":108.2647,"MEAN_ANOMALY":251.8646,"EPHEMERIS_TYPE":0,"CLASSIFICATION_TYPE":"U","NORAD_CAT_ID":51647,"ELEMENT_SET_NO":999,"REV_AT_EPOCH":18387,"BSTAR":-0.0048705,"MEAN_MOTION_DOT":-1.687e-5,"MEAN_MOTION_DDOT":0},{"OBJECT_NAME":"ONEWEB-0458","OBJECT_ID":"2022-012AC","EPOCH":"2025-12-04T15:07:16.172256","MEAN_MOTION":13.10376852,"ECCENTRICITY":0.0001694,"INCLINATION":87.8821,"RA_OF_ASC_NODE":75.0355,"ARG_OF_PERICENTER":109.3357,"MEAN_ANOMALY":250.7953,"EPHEMERIS_TYPE":0,"CLASSIFICATION_TYPE":"U","NORAD_CAT_ID":51648,"ELEMENT_SET_NO":999,"REV_AT_EPOCH":18382,"BSTAR":0.00043729,"MEAN_MOTION_DOT":1.65e-6,"MEAN_MOTION_DDOT":0},{"OBJECT_NAME":"ONEWEB-0461","OBJECT_ID":"2022-012AD","EPOCH":"2025-12-04T16:20:06.139968","MEAN_MOTION":13.17648504,"ECCENTRICITY":0.0001635,"INCLINATION":87.9126,"RA_OF_ASC_NODE":44.5217,"ARG_OF_PERICENTER":99.6832,"MEAN_ANOMALY":260.4484,"EPHEMERIS_TYPE":0,"CLASSIFICATION_TYPE":"U","NORAD_CAT_ID":51649,"ELEMENT_SET_NO":999,"REV_AT_EPOCH":18827,"BSTAR":7.8692e-5,"MEAN_MOTION_DOT":4.3e-7,"MEAN_MOTION_DDOT":0},{"OBJECT_NAME":"ONEWEB-0463","OBJECT_ID":"2022-012AE","EPOCH":"2025-12-04T15:53:22.136928","MEAN_MOTION":13.17648171,"ECCENTRICITY":0.0001726,"INCLINATION":87.9108,"RA_OF_ASC_NODE":44.5707,"ARG_OF_PERICENTER":102.8776,"MEAN_ANOMALY":257.2548,"EPHEMERIS_TYPE":0,"CLASSIFICATION_TYPE":"U","NORAD_CAT_ID":51650,"ELEMENT_SET_NO":999,"REV_AT_EPOCH":18805,"BSTAR":5.9302e-5,"MEAN_MOTION_DOT":3.6e-7,"MEAN_MOTION_DDOT":0},{"OBJECT_NAME":"ONEWEB-0464","OBJECT_ID":"2022-012AF","EPOCH":"2025-12-04T13:12:31.485888","MEAN_MOTION":13.10376665,"ECCENTRICITY":0.0001825,"INCLINATION":87.8813,"RA_OF_ASC_NODE":75.0879,"ARG_OF_PERICENTER":97.9758,"MEAN_ANOMALY":262.1577,"EPHEMERIS_TYPE":0,"CLASSIFICATION_TYPE":"U","NORAD_CAT_ID":51651,"ELEMENT_SET_NO":999,"REV_AT_EPOCH":18383,"BSTAR":-0.00014329,"MEAN_MOTION_DOT":-3.7e-7,"MEAN_MOTION_DDOT":0},{"OBJECT_NAME":"ONEWEB-0468","OBJECT_ID":"2022-012AG","EPOCH":"2025-12-04T13:22:05.695104","MEAN_MOTION":13.10375444,"ECCENTRICITY":0.000184,"INCLINATION":87.8811,"RA_OF_ASC_NODE":75.0795,"ARG_OF_PERICENTER":104.7774,"MEAN_ANOMALY":255.3557,"EPHEMERIS_TYPE":0,"CLASSIFICATION_TYPE":"U","NORAD_CAT_ID":51652,"ELEMENT_SET_NO":999,"REV_AT_EPOCH":18381,"BSTAR":0.00077156,"MEAN_MOTION_DOT":2.82e-6,"MEAN_MOTION_DDOT":0},{"OBJECT_NAME":"ONEWEB-0473","OBJECT_ID":"2022-012AH","EPOCH":"2025-12-04T16:40:28.552224","MEAN_MOTION":13.10375594,"ECCENTRICITY":0.0001692,"INCLINATION":87.8811,"RA_OF_ASC_NODE":75.0554,"ARG_OF_PERICENTER":106.9816,"MEAN_ANOMALY":253.1497,"EPHEMERIS_TYPE":0,"CLASSIFICATION_TYPE":"U","NORAD_CAT_ID":51653,"ELEMENT_SET_NO":999,"REV_AT_EPOCH":18383,"BSTAR":-0.0014029,"MEAN_MOTION_DOT":-4.77e-6,"MEAN_MOTION_DDOT":0},{"OBJECT_NAME":"ONEWEB-0474","OBJECT_ID":"2022-012AJ","EPOCH":"2025-12-04T16:28:31.230048","MEAN_MOTION":13.10372738,"ECCENTRICITY":0.0001904,"INCLINATION":87.8816,"RA_OF_ASC_NODE":75.0229,"ARG_OF_PERICENTER":103.0513,"MEAN_ANOMALY":257.0827,"EPHEMERIS_TYPE":0,"CLASSIFICATION_TYPE":"U","NORAD_CAT_ID":51654,"ELEMENT_SET_NO":999,"REV_AT_EPOCH":18382,"BSTAR":-0.002124,"MEAN_MOTION_DOT":-7.29e-6,"MEAN_MOTION_DDOT":0},{"OBJECT_NAME":"ONEWEB-0475","OBJECT_ID":"2022-012AK","EPOCH":"2025-12-04T16:10:22.518336","MEAN_MOTION":13.17648016,"ECCENTRICITY":0.0002432,"INCLINATION":87.9117,"RA_OF_ASC_NODE":44.5566,"ARG_OF_PERICENTER":107.2759,"MEAN_ANOMALY":252.8639,"EPHEMERIS_TYPE":0,"CLASSIFICATION_TYPE":"U","NORAD_CAT_ID":51655,"ELEMENT_SET_NO":999,"REV_AT_EPOCH":18807,"BSTAR":-1.7165e-5,"MEAN_MOTION_DOT":6.0e-8,"MEAN_MOTION_DDOT":0},{"OBJECT_NAME":"ONEWEB-0490","OBJECT_ID":"2022-138A","EPOCH":"2025-12-04T14:07:43.169376","MEAN_MOTION":13.19723868,"ECCENTRICITY":0.0001986,"INCLINATION":87.921,"RA_OF_ASC_NODE":343.6768,"ARG_OF_PERICENTER":87.5058,"MEAN_ANOMALY":272.6302,"EPHEMERIS_TYPE":0,"CLASSIFICATION_TYPE":"U","NORAD_CAT_ID":54113,"ELEMENT_SET_NO":999,"REV_AT_EPOCH":15116,"BSTAR":0.00013593,"MEAN_MOTION_DOT":6.7e-7,"MEAN_MOTION_DDOT":0},{"OBJECT_NAME":"ONEWEB-0492","OBJECT_ID":"2022-138B","EPOCH":"2025-12-04T12:54:55.740096","MEAN_MOTION":13.19720237,"ECCENTRICITY":0.0001901,"INCLINATION":87.9202,"RA_OF_ASC_NODE":343.7023,"ARG_OF_PERICENTER":85.0169,"MEAN_ANOMALY":275.118,"EPHEMERIS_TYPE":0,"CLASSIFICATION_TYPE":"U","NORAD_CAT_ID":54114,"ELEMENT_SET_NO":999,"REV_AT_EPOCH":15116,"BSTAR":0.0022311,"MEAN_MOTION_DOT":9.06e-6,"MEAN_MOTION_DDOT":0}]
