ONEWEB-0446             
1 51640U 22012U   25338.68814132 -.00000656  00000+0 -19167-2 0  9991
2 51640  87.8809  75.0633 0001400 101.1076 259.0209 13.10375429183850
ONEWEB-0448             
1 51641U 22012V   25338.69312124 -.00000553  00000+0 -16191-2 0  9997
2 51641  87.8808  75.0617 0001652 105.3836 254.7474 13.10377396183829
ONEWEB-0449             
1 51642U 22012W   25338.54538257 -.00000297  00000+0 -88673-3 0  9999
2 51642  87.8818  75.0626 0001633 121.1329 238.9959 13.10375936183812
ONEWEB-0451             
1 51643U 22012X   25338.66036786  .00000115  00000+0  26342-3 0  9995
2 51643  87.9126  44.5114 0001741 104.9055 255.2269 13.17649876188044
ONEWEB-0452             
1 51644U 22012Y   25338.65868602  .00000046  00000+0  86218-4 0  9997
2 51644  87.9117  44.5672 0001920 109.1674 250.9665 13.17648653188052
ONEWEB-0456             
1 51646U 22012AA  25338.24992352  .00000312  00000+0  85805-3 0  9990
2 51646  87.8826  75.0903 0001754  99.4862 260.6464 13.10376286183818
ONEWEB-0457             
1 51647U 22012AB  25338.68483125 -.00001687  00000+0 -48705-2 0  9997
2 51647  87.8797  75.0511 0001523 108.2647 251.8646 13.10360689183875
ONEWEB-0458             
1 51648U 22012AC  25338.63004829  .00000165  00000+0  43729-3 0  9993
2 51648  87.8821  75.0355 0001694 109.3357 250.7953 13.10376852183822
ONEWEB-0461             
1 51649U 22012AD  25338.68062662  .00000043  00000+0  78692-4 0  9991
2 51649  87.9126  44.5217 0001635  99.6832 260.4484 13.17648504188278
ONEWEB-0463             
1 51650U 22012AE  25338.66206177  .00000036  00000+0  59302-4 0  9991
2 51650  87.9108  44.5707 0001726 102.8776 257.2548 13.17648171188050
ONEWEB-0464             
1 51651U 22012AF  25338.55036442 -.00000037  00000+0 -14329-3 0  9998
2 51651  87.8813  75.0879 0001825  97.9758 262.1577 13.10376665183833
ONEWEB-0468             
1 51652U 22012AG  25338.55701036  .00000282  00000+0  77156-3 0  9994
2 51652  87.8811  75.0795 0001840 104.7774 255.3557 13.10375444183815
ONEWEB-0473             
1 51653U 22012AH  25338.69477491 -.00000477  00000+0 -14029-2 0  9992
2 51653  87.8811  75.0554 0001692 106.9816 253.1497 13.10375594183832
ONEWEB-0474             
1 51654U 22012AJ  25338.68647257 -.00000729  00000+0 -21240-2 0  9994
2 51654  87.8816  75.0229 0001904 103.0513 257.0827 13.10372738183821
ONEWEB-0475             
1 51655U 22012AK  25338.67387174  .00000006  00000+0 -17165-4 0  9993
2 51655  87.9117  44.5566 0002432 107.2759 252.8639 13.17648016188075
ONEWEB-0490             
1 54113U 22138A   25338.58869409  .00000067  00000+0  13593-3 0  9996
2 54113  87.9210 343.6768 0001986  87.5058 272.6302 13.19723868151161
ONEWEB-0492             
1 54114U 22138B   25338.53814514  .00000906  00000+0  22311-2 0  9998
2 54114  87.9202 343.7023 0001901  85.0169 275.1180 13.19720237151160
